BRITE-CA1 (TORONTO)     
1 40020U 14033L   26141.60715269  .00000397  00000+0  67509-4 0  9996
2 40020  97.9704 271.0313 0078626   3.0610 357.1063 14.72635475638309
DUCHIFAT-1              
1 40021U 14033M   26141.11291918  .00056933  00000+0  72160-3 0  9998
2 40021  98.0488 196.5891 0006283 165.9134 194.2297 15.59269252651522
NANOSATC-BR1            
1 40024U 14033Q   26141.53914745  .00011053  00000+0  37748-3 0  9994
2 40024  98.0740 171.5836 0001680 266.7816  93.3231 15.30507615649904
QB50P1                  
1 40025U 14033R   26141.45410363  .00005817  00000+0  29138-3 0  9998
2 40025  98.0976 150.7353 0007537 327.3362  32.7403 15.17791786648979
QB50P2                  
1 40032U 14033Y   26141.28406362  .00004693  00000+0  25695-3 0  9996
2 40032  98.0755 136.4993 0005677 266.1096  93.9485 15.14768104648592
PERSEUS-M2              
1 40037U 14033AD  26141.56680256  .00000544  00000+0  54744-4 0  9997
2 40037  97.9966  91.5709 0013067  34.0322 326.1734 14.95417780646800
PERSEUS-M1              
1 40039U 14033AF  26141.27427355  .00001042  00000+0  99392-4 0  9998
2 40039  97.9636  84.9689 0012545  33.4876 326.7135 14.95531145646618
POLYITAN-1              
1 40042U 14033AJ  26141.48176306  .00012393  00000+0  40079-3 0  9990
2 40042  98.0963 165.2371 0005913 228.6058 131.4674 15.32223174649501
TIGRISAT                
1 40043U 14033AK  26141.36718257  .00001425  00000+0  16970-3 0  9992
2 40043  97.7802 292.0012 0049942 161.1452 199.1628 14.85031228641641
AEROCUBE 6A             
1 40045U 14033AM  26141.43734138  .00003456  00000+0  29471-3 0  9994
2 40045  97.7226 308.6815 0039934 104.5559 256.0098 14.97774512642612
AEROCUBE 6B             
1 40046U 14033AN  26141.19858742  .00004553  00000+0  37296-3 0  9999
2 40046  97.7184 308.1780 0038768  98.5412 262.0207 14.99198163642710
CANX-4                  
1 40055U 14034C   26141.13117201  .00000542  00000+0  76875-4 0  9993
2 40055  98.3155  15.4472 0014140  97.2952 262.9867 14.81207409640527
